NORAD_CAT_ID,OBJECT_NAME,OBJECT_TYPE,EPOCH,MEAN_MOTION,ECCENTRICITY,INCLINATION,RA_OF_ASC_NODE,ARG_OF_PERICENTER,MEAN_ANOMALY,BSTAR,MEAN_MOTION_DOT,MEAN_MOTION_DDOT,TLE_LINE0,TLE_LINE1,TLE_LINE2,SEMIMAJOR_AXIS,PERIOD,APOGEE,PERIGEE,DECAYED
53608.0,STARLINK-4647,PAYLOAD,2023-04-25 09:21:04,15.08802543,0.0001881,53.2149,264.8082,106.7695,253.3503,-0.00037339,-6.22e-05,0.0,0 STARLINK-4647,1 53608U 22104W   23115.38963384 -.00006220  00000-0 -37339-3 0  9997,2 53608  53.2149 264.8082 0001881 106.7695 253.3503 15.08802543 36657,6917.995,95.44,541.161,538.559,0.0
53608.0,STARLINK-4647,PAYLOAD,2023-04-26 12:22:39,15.0882762,0.0002328,53.2223,259.753,291.9052,68.1693,0.0013586,0.00021393,0.0,0 STARLINK-4647,1 53608U 22104W   23116.51573817  .00021393  00000-0  13586-2 0  9994,2 53608  53.2223 259.7530 0002328 291.9052  68.1693 15.08827620 37399,6917.918,95.438,541.394,538.173,0.0
53608.0,STARLINK-4647,PAYLOAD,2023-04-26 15:33:25,15.08852372,4.43e-05,53.2148,259.1546,132.8648,227.2381,0.0015739,0.00024858,0.0,0 STARLINK-4647,1 53608U 22104W   23116.64821591  .00024858  00000-0  15739-2 0  9994,2 53608  53.2148 259.1546 0000443 132.8648 227.2381 15.08852372 37413,6917.843,95.437,540.014,539.401,0.0
53608.0,STARLINK-4647,PAYLOAD,2023-04-27 12:13:25,15.08861911,0.0001068,53.2122,255.288,108.6094,251.5015,0.00029037,4.339e-05,0.0,0 STARLINK-4647,1 53608U 22104W   23117.50932324  .00004339  00000-0  29037-3 0  9996,2 53608  53.2122 255.2880 0001068 108.6094 251.5015 15.08861911 37540,6917.813,95.436,540.417,538.94,0.0
53608.0,STARLINK-4647,PAYLOAD,2023-04-27 18:34:57,15.08864125,0.0001049,53.2121,254.0984,104.385,255.7258,0.00043609,6.664e-05,0.0,0 STARLINK-4647,1 53608U 22104W   23117.77428011  .00006664  00000-0  43609-3 0  9992,2 53608  53.2121 254.0984 0001049 104.3850 255.7258 15.08864125 37010,6917.807,95.436,540.397,538.946,0.0
53608.0,STARLINK-4647,PAYLOAD,2023-04-28 02:31:53,15.08854396,0.0001409,53.2142,252.6133,77.7715,282.3435,8.8892e-05,1.128e-05,0.0,0 STARLINK-4647,1 53608U 22104W   23118.10548113  .00001128  00000-0  88892-4 0  9990,2 53608  53.2142 252.6133 0001409  77.7715 282.3435 15.08854396 37063,6917.836,95.437,540.676,538.727,0.0
53608.0,STARLINK-4647,PAYLOAD,2023-04-28 12:04:11,15.08855553,4.61e-05,53.2131,250.8258,108.8173,251.287,-2.2334e-05,-6.43e-06,0.0,0 STARLINK-4647,1 53608U 22104W   23118.50291286 -.00000643  00000-0 -22334-4 0  9992,2 53608  53.2131 250.8258 0000461 108.8173 251.2870 15.08855553 37693,6917.833,95.437,540.017,539.379,0.0
53608.0,STARLINK-4647,PAYLOAD,2023-04-29 13:30:22,15.08846394,7.4e-05,53.2147,246.0706,88.6916,271.4161,9.8159e-06,-1.31e-06,0.0,0 STARLINK-4647,1 53608U 22104W   23119.56275502 -.00000131  00000-0  98159-5 0  9992,2 53608  53.2147 246.0706 0000740  88.6916 271.4161 15.08846394 37280,6917.861,95.437,540.238,539.214,0.0
53608.0,STARLINK-4647,PAYLOAD,2023-04-30 13:21:09,15.08836398,6.58e-05,53.2159,241.6096,86.8022,273.3045,-8.0013e-06,-4.15e-06,0.0,0 STARLINK-4647,1 53608U 22104W   23120.55636131 -.00000415  00000-0 -80013-5 0  9998,2 53608  53.2159 241.6096 0000658  86.8022 273.3045 15.08836398 37434,6917.891,95.438,540.212,539.301,0.0
53608.0,STARLINK-4647,PAYLOAD,2023-04-30 19:42:41,15.08842508,7.11e-05,53.2166,240.4201,94.8313,265.2761,6.3905e-05,7.3e-06,0.0,0 STARLINK-4647,1 53608U 22104W   23120.82131561  .00000730  00000-0  63905-4 0  9993,2 53608  53.2166 240.4201 0000711  94.8313 265.2761 15.08842508 37478,6917.873,95.437,540.23,539.246,0.0
53608.0,STARLINK-4647,PAYLOAD,2023-05-01 13:11:56,15.08837298,6.12e-05,53.216,237.1482,94.7306,265.3756,1.4658e-05,-5.4e-07,0.0,0 STARLINK-4647,1 53608U 22104W   23121.54996309 -.00000054  00000-0  14658-4 0  9993,2 53608  53.2160 237.1482 0000612  94.7306 265.3756 15.08837298 37584,6917.889,95.438,540.177,539.33,0.0
53608.0,STARLINK-4647,PAYLOAD,2023-05-02 13:02:43,15.08847539,5.98e-05,53.2151,232.688,102.7093,257.3966,0.00024987,3.692e-05,0.0,0 STARLINK-4647,1 53608U 22104W   23122.54355733  .00003692  00000-0  24987-3 0  9999,2 53608  53.2151 232.6880 0000598 102.7093 257.3966 15.08847539 37732,6917.857,95.437,540.136,539.309,0.0
53608.0,STARLINK-4647,PAYLOAD,2023-05-02 16:13:29,15.08853934,6.16e-05,53.2148,232.0931,103.3294,256.7767,0.00037963,5.762e-05,0.0,0 STARLINK-4647,1 53608U 22104W   23122.67603549  .00005762  00000-0  37963-3 0  9992,2 53608  53.2148 232.0931 0000616 103.3294 256.7767 15.08853934 38324,6917.838,95.437,540.129,539.277,0.0
53608.0,STARLINK-4647,PAYLOAD,2023-05-03 00:10:25,15.08838825,0.0001085,53.216,230.6066,91.0136,269.0981,4.567e-05,4.39e-06,0.0,0 STARLINK-4647,1 53608U 22104W   23123.00724153  .00000439  00000-0  45670-4 0  9996,2 53608  53.2160 230.6066 0001085  91.0136 269.0981 15.08838825 37809,6917.884,95.438,540.5,538.998,0.0
53608.0,STARLINK-4647,PAYLOAD,2023-05-03 12:53:31,15.08834182,5.78e-05,53.215,228.2286,96.5687,263.5371,-5.1928e-05,-1.114e-05,0.0,0 STARLINK-4647,1 53608U 22104W   23123.53716455 -.00001114  00000-0 -51928-4 0  9996,2 53608  53.2150 228.2286 0000578  96.5687 263.5371 15.08834182 38458,6917.898,95.438,540.163,539.363,0.0
53608.0,STARLINK-4647,PAYLOAD,2023-05-03 14:28:54,15.0883672,6.06e-05,53.2148,227.9311,98.7757,261.3303,1.0593e-05,-1.19e-06,0.0,0 STARLINK-4647,1 53608U 22104W   23123.60340391 -.00000119  00000-0  10593-4 0  9992,2 53608  53.2148 227.9311 0000606  98.7757 261.3303 15.08836720 38466,6917.89,95.438,540.175,539.336,0.0
53608.0,STARLINK-4647,PAYLOAD,2023-05-04 12:44:18,15.0883855,6.55e-05,53.2147,223.768,90.4535,269.6532,8.8654e-05,1.124e-05,0.0,0 STARLINK-4647,1 53608U 22104W   23124.53076684  .00001124  00000-0  88654-4 0  9995,2 53608  53.2147 223.7680 0000655  90.4535 269.6532 15.08838550 38036,6917.885,95.438,540.203,539.297,0.0
53608.0,STARLINK-4647,PAYLOAD,2023-05-04 15:55:04,15.08843024,6.15e-05,53.215,223.1726,99.7708,260.3353,0.00020892,3.039e-05,0.0,0 STARLINK-4647,1 53608U 22104W   23124.66324541  .00003039  00000-0  20892-3 0  9993,2 53608  53.2150 223.1726 0000615  99.7708 260.3353 15.08843024 38621,6917.871,95.437,540.162,539.311,0.0
53608.0,STARLINK-4647,PAYLOAD,2023-05-05 12:35:05,15.08847418,6.32e-05,53.2149,219.307,84.8521,275.2544,0.00032022,4.813e-05,0.0,0 STARLINK-4647,1 53608U 22104W   23125.52436592  .00004813  00000-0  32022-3 0  9998,2 53608  53.2149 219.3070 0000632  84.8521 275.2544 15.08847418 38757,6917.858,95.437,540.16,539.286,0.0
53608.0,STARLINK-4647,PAYLOAD,2023-05-06 06:04:19,15.08845206,9.36e-05,53.2143,216.0362,81.6461,278.4637,0.00016931,2.408e-05,0.0,0 STARLINK-4647,1 53608U 22104W   23126.25300689  .00002408  00000-0  16931-3 0  9995,2 53608  53.2143 216.0362 0000936  81.6461 278.4637 15.08845206 38294,6917.864,95.437,540.377,539.082,0.0
53608.0,STARLINK-4647,PAYLOAD,2023-05-06 12:25:52,15.08848306,8.4e-05,53.2143,214.847,84.1985,275.9103,0.00022869,3.355e-05,0.0,0 STARLINK-4647,1 53608U 22104W   23126.51796550  .00003355  00000-0  22869-3 0  9999,2 53608  53.2143 214.8470 0000840  84.1985 275.9103 15.08848306 38905,6917.855,95.437,540.301,539.139,0.0
53608.0,STARLINK-4647,PAYLOAD,2023-05-07 10:41:16,15.08843242,6.72e-05,53.2138,210.6847,84.7076,275.3993,0.00010448,1.376e-05,0.0,0 STARLINK-4647,1 53608U 22104W   23127.44532504  .00001376  00000-0  10448-3 0  9990,2 53608  53.2138 210.6847 0000672  84.7076 275.3993 15.08843242 38478,6917.87,95.437,540.2,539.271,0.0
53608.0,STARLINK-4647,PAYLOAD,2023-05-08 12:07:26,15.08841405,6.75e-05,53.2138,205.9263,97.2142,262.8927,0.00010297,1.352e-05,0.0,0 STARLINK-4647,1 53608U 22104W   23128.50516592  .00001352  00000-0  10297-3 0  9993,2 53608  53.2138 205.9263 0000675  97.2142 262.8927 15.08841405 38638,6917.876,95.437,540.208,539.274,0.0
53608.0,STARLINK-4647,PAYLOAD,2023-05-09 11:58:13,15.08840539,7.85e-05,53.2146,201.4689,112.2726,247.8349,0.00011921,1.61e-05,0.0,0 STARLINK-4647,1 53608U 22104W   23129.49876639  .00001610  00000-0  11921-3 0  9995,2 53608  53.2146 201.4689 0000785 112.2726 247.8349 15.08840539 39356,6917.879,95.438,540.287,539.201,0.0
53608.0,STARLINK-4647,PAYLOAD,2023-05-10 11:49:01,15.08837323,8.37e-05,53.2161,197.0076,96.4362,263.6726,6.499e-05,7.47e-06,0.0,0 STARLINK-4647,1 53608U 22104W   23130.49237373  .00000747  00000-0  64990-4 0  9998,2 53608  53.2161 197.0076 0000837  96.4362 263.6726 15.08837323 39509,6917.889,95.438,540.333,539.175,0.0
53608.0,STARLINK-4647,PAYLOAD,2023-05-10 21:21:19,15.08837604,8.52e-05,53.2149,195.2225,83.4233,276.6856,6.5894e-05,7.61e-06,0.0,0 STARLINK-4647,1 53608U 22104W   23130.88981194  .00000761  00000-0  65894-4 0  9998,2 53608  53.2149 195.2225 0000852  83.4233 276.6856 15.08837604 39567,6917.888,95.438,540.342,539.163,0.0
53608.0,STARLINK-4647,PAYLOAD,2023-05-11 10:04:24,15.08839953,9.84e-05,53.2156,192.8449,82.1253,277.9851,7.2564e-05,8.67e-06,0.0,0 STARLINK-4647,1 53608U 22104W   23131.41973248  .00000867  00000-0  72564-4 0  9998,2 53608  53.2156 192.8449 0000984  82.1253 277.9851 15.08839953 39647,6917.881,95.438,540.426,539.065,0.0
53608.0,STARLINK-4647,PAYLOAD,2023-05-11 21:12:06,15.08841519,8.69e-05,53.2148,190.7616,89.8363,270.2729,8.1754e-05,1.014e-05,0.0,0 STARLINK-4647,1 53608U 22104W   23131.88341182  .00001014  00000-0  81754-4 0  9991,2 53608  53.2148 190.7616 0000869  89.8363 270.2729 15.08841519 39718,6917.876,95.437,540.342,539.14,0.0
53608.0,STARLINK-4647,PAYLOAD,2023-05-11 22:47:32,15.08802646,0.0001078,53.2148,190.4646,102.8244,257.2868,0.001303,0.00020489,0.0,0 STARLINK-4647,1 53608U 22104W   23131.94967901  .00020489  00000-0  13030-2 0  9998,2 53608  53.2148 190.4646 0001078 102.8244 257.2868 15.08802646 39150,6917.995,95.44,540.605,539.114,0.0
53608.0,STARLINK-4647,PAYLOAD,2023-05-12 21:02:53,15.08844841,9.84e-05,53.2145,186.3009,75.5446,284.5655,0.00018401,2.642e-05,0.0,0 STARLINK-4647,1 53608U 22104W   23132.87701300  .00002642  00000-0  18401-3 0  9999,2 53608  53.2145 186.3009 0000984  75.5446 284.5655 15.08844841 39294,6917.866,95.437,540.411,539.05,0.0
